NORAD_CAT_ID,OBJECT_NAME,OBJECT_TYPE,EPOCH,MEAN_MOTION,ECCENTRICITY,INCLINATION,RA_OF_ASC_NODE,ARG_OF_PERICENTER,MEAN_ANOMALY,BSTAR,MEAN_MOTION_DOT,MEAN_MOTION_DDOT,TLE_LINE0,TLE_LINE1,TLE_LINE2,SEMIMAJOR_AXIS,PERIOD,APOGEE,PERIGEE,DECAYED
50156.0,STARLINK-3317,PAYLOAD,2023-04-17 19:47:55,15.08850164,0.0001189,53.2146,313.5694,92.4007,267.7121,0.0011235,0.00017643,0.0,0 STARLINK-3317,1 50156U 21125A   23107.82494278  .00017643  00000-0  11235-2 0  9990,2 50156  53.2146 313.5694 0001189  92.4007 267.7121 15.08850164 76560,6917.849,95.437,540.537,538.892,0.0
50156.0,STARLINK-3317,PAYLOAD,2023-04-17 21:23:18,15.08849502,0.0001095,53.2149,313.273,86.5658,273.5459,0.0015798,0.0002495,0.0,0 STARLINK-3317,1 50156U 21125A   23107.89118327  .00024950  00000-0  15798-2 0  9992,2 50156  53.2149 313.2730 0001095  86.5658 273.5459 15.08849502 77095,6917.851,95.437,540.474,538.959,0.0
50156.0,STARLINK-3317,PAYLOAD,2023-04-18 00:34:04,15.08856601,0.0001088,53.2147,312.6782,83.4138,276.6978,0.0017927,0.00028371,0.0,0 STARLINK-3317,1 50156U 21125A   23108.02366222  .00028371  00000-0  17927-2 0  9994,2 50156  53.2147 312.6782 0001088  83.4138 276.6978 15.08856601 77115,6917.83,95.437,540.447,538.942,0.0
50156.0,STARLINK-3317,PAYLOAD,2023-04-18 16:27:55,15.08847454,0.0001085,53.2141,309.703,104.278,255.8332,0.0010824,0.00016984,0.0,0 STARLINK-3317,1 50156U 21125A   23108.68606363  .00016984  00000-0  10824-2 0  9995,2 50156  53.2141 309.7030 0001085 104.2780 255.8332 15.08847454 76695,6917.858,95.437,540.473,538.972,0.0
50156.0,STARLINK-3317,PAYLOAD,2023-04-18 19:38:42,15.08856907,0.0001022,53.2145,309.1086,96.6704,263.4404,0.001575,0.00024879,0.0,0 STARLINK-3317,1 50156U 21125A   23108.81854247  .00024879  00000-0  15750-2 0  9991,2 50156  53.2145 309.1086 0001022  96.6704 263.4404 15.08856907 77234,6917.829,95.436,540.401,538.987,0.0
50156.0,STARLINK-3317,PAYLOAD,2023-04-19 19:29:29,15.08850198,0.0001263,53.2149,304.6493,78.9627,281.1508,0.00053797,8.287e-05,0.0,0 STARLINK-3317,1 50156U 21125A   23109.81214295  .00008287  00000-0  53797-3 0  9994,2 50156  53.2149 304.6493 0001263  78.9627 281.1508 15.08850198 77388,6917.849,95.437,540.588,538.84,0.0
50156.0,STARLINK-3317,PAYLOAD,2023-04-20 05:01:47,15.08845454,0.0001154,53.2154,302.8638,74.2773,285.8346,0.00032798,4.937e-05,0.0,0 STARLINK-3317,1 50156U 21125A   23110.20958267  .00004937  00000-0  32798-3 0  9999,2 50156  53.2154 302.8638 0001154  74.2773 285.8346 15.08845454 76924,6917.864,95.437,540.527,538.93,0.0
50156.0,STARLINK-3317,PAYLOAD,2023-04-20 12:58:43,15.08840223,9.73e-05,53.2151,301.3777,78.424,281.6861,5.9602e-05,6.61e-06,0.0,0 STARLINK-3317,1 50156U 21125A   23110.54078414  .00000661  00000-0  59602-4 0  9997,2 50156  53.2151 301.3777 0000973  78.4240 281.6861 15.08840223 77490,6917.88,95.438,540.418,539.072,0.0
50156.0,STARLINK-3317,PAYLOAD,2023-04-20 14:34:06,15.08840207,9.71e-05,53.2152,301.0797,86.1157,273.9946,7.5455e-05,9.13e-06,0.0,0 STARLINK-3317,1 50156U 21125A   23110.60702365  .00000913  00000-0  75455-4 0  9997,2 50156  53.2152 301.0797 0000971  86.1157 273.9946 15.08840207 76984,6917.88,95.438,540.416,539.073,0.0
50156.0,STARLINK-3317,PAYLOAD,2023-04-20 16:09:30,15.08840155,0.0001233,53.2157,300.7849,67.5512,292.5611,7.9289e-05,9.74e-06,0.0,0 STARLINK-3317,1 50156U 21125A   23110.67326403  .00000974  00000-0  79289-4 0  9995,2 50156  53.2157 300.7849 0001233  67.5512 292.5611 15.08840155 77511,6917.88,95.438,540.598,538.892,0.0
50156.0,STARLINK-3317,PAYLOAD,2023-04-21 19:11:01,15.08864474,9.1e-05,53.2149,295.7262,73.3821,286.7271,0.00040852,6.224e-05,0.0,0 STARLINK-3317,1 50156U 21125A   23111.79932691  .00006224  00000-0  40852-3 0  9998,2 50156  53.2149 295.7262 0000910  73.3821 286.7271 15.08864474 77161,6917.806,95.436,540.3,539.041,0.0
50156.0,STARLINK-3317,PAYLOAD,2023-04-21 22:21:47,15.08876797,0.0001037,53.2153,295.1305,80.2864,279.8245,0.00068954,0.00010714,0.0,0 STARLINK-3317,1 50156U 21125A   23111.93180178  .00010714  00000-0  68954-3 0  9991,2 50156  53.2153 295.1305 0001037  80.2864 279.8245 15.08876797 77180,6917.768,95.435,540.35,538.916,0.0
50156.0,STARLINK-3317,PAYLOAD,2023-04-22 19:01:49,15.08833059,0.0001334,53.2165,291.2667,99.009,261.1053,-0.00021922,-3.774e-05,0.0,0 STARLINK-3317,1 50156U 21125A   23112.79293603 -.00003774  00000-0 -21922-3 0  9998,2 50156  53.2165 291.2667 0001334  99.0090 261.1053 15.08833059 77310,6917.902,95.438,540.689,538.844,0.0
50156.0,STARLINK-3317,PAYLOAD,2023-04-23 12:31:04,15.08827429,0.0001195,53.2154,287.9933,94.8738,265.239,-0.00030361,-5.115e-05,0.0,0 STARLINK-3317,1 50156U 21125A   23113.52157878 -.00005115  00000-0 -30361-3 0  9991,2 50156  53.2154 287.9933 0001195  94.8738 265.2390 15.08827429 77945,6917.919,95.438,540.611,538.957,0.0
50156.0,STARLINK-3317,PAYLOAD,2023-04-23 14:06:27,15.08827438,0.0001371,53.215,287.6972,108.202,251.9121,-0.00024481,-4.181e-05,0.0,0 STARLINK-3317,1 50156U 21125A   23113.58782245 -.00004181  00000-0 -24481-3 0  9997,2 50156  53.2150 287.6972 0001371 108.2020 251.9121 15.08827438 77956,6917.919,95.438,540.732,538.835,0.0
50156.0,STARLINK-3317,PAYLOAD,2023-04-24 04:24:55,15.08861289,0.0001092,53.2161,285.0216,98.0073,262.1044,0.00079331,0.00012367,0.0,0 STARLINK-3317,1 50156U 21125A   23114.18398010  .00012367  00000-0  79331-3 0  9994,2 50156  53.2161 285.0216 0001092  98.0073 262.1044 15.08861289 77528,6917.815,95.436,540.436,538.925,0.0
50156.0,STARLINK-3317,PAYLOAD,2023-04-25 10:37:15,15.08823565,0.0002358,53.215,279.3724,65.4043,294.7194,-0.00033525,-5.618e-05,0.0,0 STARLINK-3317,1 50156U 21125A   23115.44253956 -.00005618  00000-0 -33525-3 0  9991,2 50156  53.2150 279.3724 0002358  65.4043 294.7194 15.08823565 78238,6917.931,95.439,541.427,538.164,0.0
50156.0,STARLINK-3317,PAYLOAD,2023-04-26 13:38:50,15.08827007,0.0001148,53.2147,274.3172,48.7416,311.3674,0.00090199,0.00014091,0.0,0 STARLINK-3317,1 50156U 21125A   23116.56864127  .00014091  00000-0  90199-3 0  9996,2 50156  53.2147 274.3172 0001148  48.7416 311.3674 15.08827007 78403,6917.92,95.438,540.579,538.991,0.0
50156.0,STARLINK-3317,PAYLOAD,2023-04-26 20:00:23,15.08842413,0.0001198,53.215,273.1275,49.7054,310.4042,0.0011727,0.00018426,0.0,0 STARLINK-3317,1 50156U 21125A   23116.83360112  .00018426  00000-0  11727-2 0  9996,2 50156  53.2150 273.1275 0001198  49.7054 310.4042 15.08842413 78443,6917.873,95.437,540.567,538.909,0.0
50156.0,STARLINK-3317,PAYLOAD,2023-04-27 03:57:18,15.08851726,0.0001262,53.2154,271.6407,49.692,310.4182,0.0011022,0.00017303,0.0,0 STARLINK-3317,1 50156U 21125A   23117.16480028  .00017303  00000-0  11022-2 0  9993,2 50156  53.2154 271.6407 0001262  49.6920 310.4182 15.08851726 78497,6917.845,95.437,540.583,538.837,0.0
50156.0,STARLINK-3317,PAYLOAD,2023-04-27 19:51:09,15.0887609,0.0001333,53.215,268.6664,52.246,307.8653,0.0012734,0.00020056,0.0,0 STARLINK-3317,1 50156U 21125A   23117.82719048  .00020056  00000-0  12734-2 0  9993,2 50156  53.2150 268.6664 0001333  52.2460 307.8653 15.08876090 78070,6917.77,95.435,540.557,538.713,0.0
50156.0,STARLINK-3317,PAYLOAD,2023-04-28 10:09:37,15.08846588,0.0001336,53.2148,265.9897,53.8212,306.2903,0.0001414,1.964e-05,0.0,0 STARLINK-3317,1 50156U 21125A   23118.42335326  .00001964  00000-0  14140-3 0  9994,2 50156  53.2148 265.9897 0001336  53.8212 306.2903 15.08846588 78160,6917.86,95.437,540.649,538.801,0.0
50156.0,STARLINK-3317,PAYLOAD,2023-04-28 21:17:19,15.08844121,9.74e-05,53.2151,263.9077,62.1937,297.9154,0.00042245,6.443e-05,0.0,0 STARLINK-3317,1 50156U 21125A   23118.88703341  .00006443  00000-0  42245-3 0  9994,2 50156  53.2151 263.9077 0000974  62.1937 297.9154 15.08844121 78756,6917.868,95.437,540.407,539.059,0.0
50156.0,STARLINK-3317,PAYLOAD,2023-04-29 16:21:57,15.08850727,0.0001051,53.2166,260.338,66.1055,294.0048,0.00048859,7.499e-05,0.0,0 STARLINK-3317,1 50156U 21125A   23119.68191152  .00007499  00000-0  48859-3 0  9993,2 50156  53.2166 260.3380 0001051  66.1055 294.0048 15.08850727 78357,6917.848,95.437,540.44,538.986,0.0
50156.0,STARLINK-3317,PAYLOAD,2023-04-30 14:37:20,15.08845186,9.13e-05,53.2156,256.1762,80.4719,279.6376,0.00014882,2.082e-05,0.0,0 STARLINK-3317,1 50156U 21125A   23120.60927067  .00002082  00000-0  14882-3 0  9991,2 50156  53.2156 256.1762 0000913  80.4719 279.6376 15.08845186 78496,6917.865,95.437,540.361,539.098,0.0
50156.0,STARLINK-3317,PAYLOAD,2023-05-01 12:52:45,15.0883716,8.53e-05,53.2154,252.0138,77.9457,282.163,-6.7352e-05,-1.359e-05,0.0,0 STARLINK-3317,1 50156U 21125A   23121.53663390 -.00001359  00000-0 -67352-4 0  9999,2 50156  53.2154 252.0138 0000853  77.9457 282.1630 15.08837160 79158,6917.889,95.438,540.344,539.164,0.0
50156.0,STARLINK-3317,PAYLOAD,2023-05-01 16:03:31,15.08840306,8.42e-05,53.2155,251.4188,71.131,288.9773,2.6331e-05,1.31e-06,0.0,0 STARLINK-3317,1 50156U 21125A   23121.66911346  .00000131  00000-0  26331-4 0  9997,2 50156  53.2155 251.4188 0000842  71.1310 288.9773 15.08840306 78651,6917.879,95.438,540.327,539.162,0.0
50156.0,STARLINK-3317,PAYLOAD,2023-05-02 12:43:32,15.08851796,8.23e-05,53.2154,247.553,68.6674,291.4406,0.00045356,6.94e-05,0.0,0 STARLINK-3317,1 50156U 21125A   23122.53023253  .00006940  00000-0  45356-3 0  9996,2 50156  53.2154 247.5530 0000823  68.6674 291.4406 15.08851796 79300,6917.844,95.437,540.279,539.14,0.0
50156.0,STARLINK-3317,PAYLOAD,2023-05-02 17:29:41,15.08862669,8.67e-05,53.2153,246.6603,70.4665,289.642,0.00080106,0.00012492,0.0,0 STARLINK-3317,1 50156U 21125A   23122.72894943  .00012492  00000-0  80106-3 0  9990,2 50156  53.2153 246.6603 0000867  70.4665 289.6420 15.08862669 78810,6917.811,95.436,540.276,539.076,0.0
50156.0,STARLINK-3317,PAYLOAD,2023-05-03 03:02:00,15.08844293,9.61e-05,53.2148,244.8769,83.8252,276.285,1.2454e-05,-9e-07,0.0,0 STARLINK-3317,1 50156U 21125A   23123.12639162 -.00000090  00000-0  12454-4 0  9999,2 50156  53.2148 244.8769 0000961  83.8252 276.2850 15.08844293 78870,6917.867,95.437,540.397,539.067,0.0
